NORAD_CAT_ID,OBJECT_NAME,OBJECT_TYPE,EPOCH,MEAN_MOTION,ECCENTRICITY,INCLINATION,RA_OF_ASC_NODE,ARG_OF_PERICENTER,MEAN_ANOMALY,BSTAR,MEAN_MOTION_DOT,MEAN_MOTION_DDOT,TLE_LINE0,TLE_LINE1,TLE_LINE2,SEMIMAJOR_AXIS,PERIOD,APOGEE,PERIGEE,DECAYED
52660.0,STARLINK-4081,PAYLOAD,2023-08-29 11:59:31,15.08842464,0.0001369,53.2175,338.4816,93.8931,266.2218,5.4974e-05,5.87e-06,0.0,0 STARLINK-4081,1 52660U 22053E   23241.49966760  .00000587  00000-0  54974-4 0  9993,2 52660  53.2175 338.4816 0001369  93.8931 266.2218 15.08842464 71747,6917.873,95.437,540.685,538.791,0.0
52660.0,STARLINK-4081,PAYLOAD,2023-08-29 13:34:54,15.0884379,0.0001297,53.2171,338.1858,95.4302,264.6838,0.00010324,1.356e-05,0.0,0 STARLINK-4081,1 52660U 22053E   23241.56590540  .00001356  00000-0  10324-3 0  9995,2 52660  53.2171 338.1858 0001297  95.4302 264.6838 15.08843790 71750,6917.869,95.437,540.631,538.837,0.0
52660.0,STARLINK-4081,PAYLOAD,2023-08-30 07:04:09,15.08834551,0.0001356,53.2171,334.9155,91.1926,268.9221,6.6365e-05,7.68e-06,0.0,0 STARLINK-4081,1 52660U 22053E   23242.29455410  .00000768  00000-0  66365-4 0  9995,2 52660  53.2171 334.9155 0001356  91.1926 268.9221 15.08834551 71865,6917.897,95.438,540.7,538.824,0.0
52660.0,STARLINK-4081,PAYLOAD,2023-08-30 13:25:41,15.08838513,0.0001337,53.2171,333.7262,93.5042,266.6103,9.1899e-05,1.175e-05,0.0,0 STARLINK-4081,1 52660U 22053E   23242.55951127  .00001175  00000-0  91899-4 0  9993,2 52660  53.2171 333.7262 0001337  93.5042 266.6103 15.08838513 71906,6917.885,95.438,540.675,538.825,0.0
52660.0,STARLINK-4081,PAYLOAD,2023-08-30 22:58:00,15.0884391,0.0001305,53.2172,331.9416,90.4524,269.6618,9.46e-05,1.218e-05,0.0,0 STARLINK-4081,1 52660U 22053E   23242.95694718  .00001218  00000-0  94600-4 0  9998,2 52660  53.2172 331.9416 0001305  90.4524 269.6618 15.08843910 71961,6917.868,95.437,540.636,538.831,0.0
52660.0,STARLINK-4081,PAYLOAD,2023-09-01 13:07:15,15.08843161,0.0001485,53.2184,324.8038,88.7169,271.3994,6.4107e-05,7.33e-06,0.0,0 STARLINK-4081,1 52660U 22053E   23244.54671024  .00000733  00000-0  64107-4 0  9990,2 52660  53.2184 324.8038 0001485  88.7169 271.3994 15.08843161 72202,6917.871,95.437,540.763,538.708,0.0
52660.0,STARLINK-4081,PAYLOAD,2023-09-01 14:42:38,15.08854308,0.0001944,53.218,324.5045,96.1752,263.9461,-2.4986e-05,-6.86e-06,0.0,0 STARLINK-4081,1 52660U 22053E   23244.61294549 -.00000686  00000-0 -24986-4 0  9991,2 52660  53.2180 324.5045 0001944  96.1752 263.9461 15.08854308 72216,6917.837,95.437,541.046,538.357,0.0
52660.0,STARLINK-4081,PAYLOAD,2023-09-01 22:39:34,15.08842262,0.0001356,53.2185,323.0205,80.7261,279.3884,4.3264e-05,4.01e-06,0.0,0 STARLINK-4081,1 52660U 22053E   23244.94415011  .00000401  00000-0  43264-4 0  9999,2 52660  53.2185 323.0205 0001356  80.7261 279.3884 15.08842262 72265,6917.873,95.437,540.677,538.8,0.0
52660.0,STARLINK-4081,PAYLOAD,2023-09-02 11:22:39,15.08842291,0.0001726,53.2154,320.6408,82.0785,278.0403,8.0889e-05,1e-05,0.0,0 STARLINK-4081,1 52660U 22053E   23245.47407077  .00001000  00000-0  80889-4 0  9991,2 52660  53.2154 320.6408 0001726  82.0785 278.0403 15.08842291 72340,6917.873,95.437,540.932,538.544,0.0
52660.0,STARLINK-4081,PAYLOAD,2023-09-02 12:58:02,15.08851119,0.0001549,53.2179,320.3434,78.9075,281.2091,2.0767e-05,4.3e-07,0.0,0 STARLINK-4081,1 52660U 22053E   23245.54031095  .00000043  00000-0  20767-4 0  9997,2 52660  53.2179 320.3434 0001549  78.9075 281.2091 15.08851119 72351,6917.846,95.437,540.783,538.64,0.0
52660.0,STARLINK-4081,PAYLOAD,2023-09-03 00:05:44,15.08865766,0.0001608,53.2169,318.2619,82.7589,277.3585,-9.6412e-05,-1.823e-05,0.0,0 STARLINK-4081,1 52660U 22053E   23246.00398594 -.00001823  00000-0 -96412-4 0  9998,2 52660  53.2169 318.2619 0001608  82.7589 277.3585 15.08865766 72425,6917.802,95.436,540.779,538.554,0.0
52660.0,STARLINK-4081,PAYLOAD,2023-09-03 11:13:25,15.08862765,0.0001532,53.217,316.1806,81.2414,278.8752,4.4271e-06,-2.18e-06,0.0,0 STARLINK-4081,1 52660U 22053E   23246.46765757 -.00000218  00000-0  44271-5 0  9990,2 52660  53.2170 316.1806 0001532  81.2414 278.8752 15.08862765 72494,6917.811,95.436,540.736,538.616,0.0
52660.0,STARLINK-4081,PAYLOAD,2023-09-03 22:21:08,15.0884662,0.0001611,53.2159,314.0987,87.4438,272.6739,-3.2743e-06,-3.4e-06,0.0,0 STARLINK-4081,1 52660U 22053E   23246.93134428 -.00000340  00000-0 -32743-5 0  9995,2 52660  53.2159 314.0987 0001611  87.4438 272.6739 15.08846620 72567,6917.86,95.437,540.84,538.611,0.0
52660.0,STARLINK-4081,PAYLOAD,2023-09-04 11:04:14,15.08829286,0.000183,53.2166,311.7194,92.2794,267.8408,-1.9425e-05,-5.97e-06,0.0,0 STARLINK-4081,1 52660U 22053E   23247.46128033 -.00000597  00000-0 -19425-4 0  9994,2 52660  53.2166 311.7194 0001830  92.2794 267.8408 15.08829286 72648,6917.913,95.438,541.044,538.512,0.0
52660.0,STARLINK-4081,PAYLOAD,2023-09-05 04:33:28,15.08836251,0.0001421,53.2177,308.4508,88.4752,271.6403,1.4846e-05,-5.2e-07,0.0,0 STARLINK-4081,1 52660U 22053E   23248.18991842 -.00000052  00000-0  14846-4 0  9997,2 52660  53.2177 308.4508 0001421  88.4752 271.6403 15.08836251 72759,6917.892,95.438,540.74,538.774,0.0
52660.0,STARLINK-4081,PAYLOAD,2023-09-06 04:24:16,15.08839649,0.0001415,53.2163,303.9894,93.7109,266.4045,0.00039581,6.017e-05,0.0,0 STARLINK-4081,1 52660U 22053E   23249.18351997  .00006017  00000-0  39581-3 0  9997,2 52660  53.2163 303.9894 0001415  93.7109 266.4045 15.08839649 72905,6917.881,95.438,540.725,538.768,0.0
52660.0,STARLINK-4081,PAYLOAD,2023-09-06 20:18:07,15.08848893,0.0001369,53.2162,301.0156,91.1351,268.9798,0.000326,4.905e-05,0.0,0 STARLINK-4081,1 52660U 22053E   23249.84591533  .00004905  00000-0  32600-3 0  9991,2 52660  53.2162 301.0156 0001369  91.1351 268.9798 15.08848893 73008,6917.853,95.437,540.665,538.771,0.0
52660.0,STARLINK-4081,PAYLOAD,2023-09-07 02:39:39,15.08847519,0.0001903,53.2158,299.8261,86.9977,273.1232,0.00024375,3.594e-05,0.0,0 STARLINK-4081,1 52660U 22053E   23250.11087738  .00003594  00000-0  24375-3 0  9993,2 52660  53.2158 299.8261 0001903  86.9977 273.1232 15.08847519 73043,6917.857,95.437,541.039,538.406,0.0
52660.0,STARLINK-4081,PAYLOAD,2023-09-07 09:01:12,15.08834756,0.0001482,53.2162,298.6372,91.862,268.2542,-1.2147e-05,-4.81e-06,0.0,0 STARLINK-4081,1 52660U 22053E   23250.37584195 -.00000481  00000-0 -12147-4 0  9999,2 52660  53.2162 298.6372 0001482  91.8620 268.2542 15.08834756 73082,6917.896,95.438,540.787,538.736,0.0
52660.0,STARLINK-4081,PAYLOAD,2023-09-08 10:27:22,15.0884633,0.0001435,53.2163,293.8784,84.533,275.5826,9.5936e-05,1.239e-05,0.0,0 STARLINK-4081,1 52660U 22053E   23251.43567595  .00001239  00000-0  95936-4 0  9999,2 52660  53.2163 293.8784 0001435  84.5330 275.5826 15.08846330 73247,6917.861,95.437,540.719,538.733,0.0
52660.0,STARLINK-4081,PAYLOAD,2023-09-08 15:13:31,15.08856118,0.0001603,53.2159,292.9855,98.2993,261.8181,-6.5611e-05,-1.333e-05,0.0,0 STARLINK-4081,1 52660U 22053E   23251.63438910 -.00001333  00000-0 -65611-4 0  9993,2 52660  53.2159 292.9855 0001603  98.2993 261.8181 15.08856118 73275,6917.831,95.437,540.805,538.587,0.0
52660.0,STARLINK-4081,PAYLOAD,2023-09-09 02:21:14,15.08835412,0.0001626,53.216,290.9049,72.7595,287.3575,0.00014705,2.053e-05,0.0,0 STARLINK-4081,1 52660U 22053E   23252.09808457  .00002053  00000-0  14705-3 0  9996,2 52660  53.2160 290.9049 0001626  72.7595 287.3575 15.08835412 73342,6917.894,95.438,540.884,538.635,0.0
52660.0,STARLINK-4081,PAYLOAD,2023-09-09 10:18:09,15.0884164,0.0001423,53.2155,289.4174,85.457,274.6584,0.00017019,2.422e-05,0.0,0 STARLINK-4081,1 52660U 22053E   23252.42928049  .00002422  00000-0  17019-3 0  9994,2 52660  53.2155 289.4174 0001423  85.4570 274.6584 15.08841640 73391,6917.875,95.437,540.725,538.756,0.0
52660.0,STARLINK-4081,PAYLOAD,2023-09-10 02:12:01,15.08847623,0.0001424,53.2153,286.444,98.8672,261.2481,0.0002398,3.531e-05,0.0,0 STARLINK-4081,1 52660U 22053E   23253.09167870  .00003531  00000-0  23980-3 0  9991,2 52660  53.2153 286.4440 0001424  98.8672 261.2481 15.08847623 73490,6917.857,95.437,540.707,538.737,0.0
52660.0,STARLINK-4081,PAYLOAD,2023-09-10 08:33:33,15.08847333,0.0001463,53.2152,285.2546,87.609,272.5069,0.00028487,4.25e-05,0.0,0 STARLINK-4081,1 52660U 22053E   23253.35663884  .00004250  00000-0  28487-3 0  9992,2 52660  53.2152 285.2546 0001463  87.6090 272.5069 15.08847333 73536,6917.858,95.437,540.735,538.711,0.0
52660.0,STARLINK-4081,PAYLOAD,2023-09-10 22:52:02,15.08840715,0.0001498,53.215,282.5784,87.8984,272.218,0.00017436,2.488e-05,0.0,0 STARLINK-4081,1 52660U 22053E   23253.95280214  .00002488  00000-0  17436-3 0  9993,2 52660  53.2150 282.5784 0001498  87.8984 272.2180 15.08840715 73628,6917.878,95.438,540.78,538.707,0.0
52660.0,STARLINK-4081,PAYLOAD,2023-09-11 11:35:07,15.08840395,0.0001518,53.2153,280.2,84.0684,276.0482,9.7549e-05,1.265e-05,0.0,0 STARLINK-4081,1 52660U 22053E   23254.48272361  .00001265  00000-0  97549-4 0  9992,2 52660  53.2153 280.2000 0001518  84.0684 276.0482 15.08840395 73706,6917.879,95.438,540.794,538.694,0.0
52660.0,STARLINK-4081,PAYLOAD,2023-09-12 01:53:35,15.08845637,0.0001552,53.215,277.5234,83.8273,276.2896,0.00014829,2.073e-05,0.0,0 STARLINK-4081,1 52660U 22053E   23255.07888064  .00002073  00000-0  14829-3 0  9998,2 52660  53.2150 277.5234 0001552  83.8273 276.2896 15.08845637 73794,6917.863,95.437,540.802,538.655,0.0
52660.0,STARLINK-4081,PAYLOAD,2023-09-12 08:15:07,15.08848104,0.0001542,53.2152,276.3341,83.5082,276.6086,0.00017601,2.515e-05,0.0,0 STARLINK-4081,1 52660U 22053E   23255.34383852  .00002515  00000-0  17601-3 0  9995,2 52660  53.2152 276.3341 0001542  83.5082 276.6086 15.08848104 73838,6917.856,95.437,540.787,538.654,0.0
52660.0,STARLINK-4081,PAYLOAD,2023-09-13 08:05:54,15.08846509,0.0001547,53.215,271.8728,83.7108,276.406,0.00019478,2.814e-05,0.0,0 STARLINK-4081,1 52660U 22053E   23256.33743819  .00002814  00000-0  19478-3 0  9994,2 52660  53.2150 271.8728 0001547  83.7108 276.4060 15.08846509 73984,6917.86,95.437,540.796,538.655,0.0
